[{"OBJECT_NAME":"STARLINK-2618","OBJECT_ID":"2021-044BH","EPOCH":"2026-03-09T06:58:05.889216","MEAN_MOTION":15.30196275,"ECCENTRICITY":0.00013813,"INCLINATION":53.1605,"RA_OF_ASC_NODE":77.1185,"ARG_OF_PERICENTER":92.9326,"MEAN_ANOMALY":267.1833,"EPHEMERIS_TYPE":0,"CLASSIFICATION_TYPE":"U","NORAD_CAT_ID":48693,"ELEMENT_SET_NO":999,"REV_AT_EPOCH":26430,"BSTAR":8.721502e-6,"MEAN_MOTION_DOT":-1.01e-6,"MEAN_MOTION_DDOT":0},{"OBJECT_NAME":"OBJECT N","OBJECT_ID":"2019-093N","EPOCH":"2026-03-09T21:41:56.087232","MEAN_MOTION":15.29897693,"ECCENTRICITY":0.0006278,"INCLINATION":98.0505,"RA_OF_ASC_NODE":226.9456,"ARG_OF_PERICENTER":33.3806,"MEAN_ANOMALY":326.7828,"EPHEMERIS_TYPE":0,"CLASSIFICATION_TYPE":"U","NORAD_CAT_ID":44891,"ELEMENT_SET_NO":999,"REV_AT_EPOCH":33957,"BSTAR":0.0010567776,"MEAN_MOTION_DOT":0.00030617,"MEAN_MOTION_DDOT":0}]
